OBJECT_NAME,OBJECT_ID,EPOCH,MEAN_MOTION,ECCENTRICITY,INCLINATION,RA_OF_ASC_NODE,ARG_OF_PERICENTER,MEAN_ANOMALY,EPHEMERIS_TYPE,CLASSIFICATION_TYPE,NORAD_CAT_ID,ELEMENT_SET_NO,REV_AT_EPOCH,BSTAR,MEAN_MOTION_DOT,MEAN_MOTION_DDOT
ISS (ZARYA),1998-067A,2018-11-22T11:56:41.209152,15.54002573,.0005312,51.6410,309.8041,73.4832,72.5213,0,U,25544,999,14313,.4068E-4,.2201E-4,0
ISS (ZARYA),1998-067A,2018-11-23T09:35:56.501664,15.54010020,.0005308,51.6405,305.3059,76.4761,80.5126,0,U,25544,999,14327,.46347E-4,.2576E-4,0
ISS (ZARYA),1998-067A,2018-11-23T11:04:54.081984,15.54010296,.0005302,51.6404,304.9979,76.3932,66.4347,0,U,25544,999,14328,.46094E-4,.2559E-4,0
ISS (ZARYA),1998-067A,2018-11-23T16:35:58.000128,15.54011319,.00053,51.6405,303.8520,77.0715,272.8054,0,U,25544,999,14331,.4496E-4,.2484E-4,0
ISS (ZARYA),1998-067A,2018-11-23T18:27:05.855328,15.54011739,.0005305,51.6406,303.4674,77.2314,344.6784,0,U,25544,999,14333,.44843E-4,.2477E-4,0
ISS (ZARYA),1998-067A,2018-11-23T21:42:03.339648,15.54012523,.000534,51.6404,302.7924,77.9179,21.9126,0,U,25544,999,14335,.44693E-4,.2467E-4,0
ISS (ZARYA),1998-067A,2018-11-24T04:16:27.999840,15.54011910,.0005361,51.6409,301.4268,78.9342,114.2027,0,U,25544,999,14339,.38904E-4,.2085E-4,0
ISS (ZARYA),1998-067A,2018-11-24T06:41:11.687136,15.54012641,.0005265,51.6413,300.9279,79.2622,316.5199,0,U,25544,999,14341,.39504E-4,.2124E-4,0
ISS (ZARYA),1998-067A,2018-11-24T08:00:50.370912,15.54012871,.0005264,51.6413,300.6521,79.4807,265.9286,0,U,25544,999,14341,.3935E-4,.2114E-4,0
ISS (ZARYA),1998-067A,2018-11-24T08:46:44.122944,15.54013037,.0005263,51.6413,300.4932,79.5993,84.2352,0,U,25544,999,14342,.3935E-4,.2114E-4,0
ISS (ZARYA),1998-067A,2018-11-24T14:54:48.316320,15.54014027,.0005234,51.6419,299.2200,79.7896,74.9554,0,U,25544,999,14346,.3785E-4,.2015E-4,0
ISS (ZARYA),1998-067A,2018-11-24T17:35:15.954720,15.54014531,.0005239,51.6419,298.6646,80.2002,338.3533,0,U,25544,999,14348,.37698E-4,.2005E-4,0
ISS (ZARYA),1998-067A,2018-11-24T22:22:14.913120,15.54015422,.0005248,51.6421,297.6711,81.0430,13.1881,0,U,25544,999,14351,.37126E-4,.1968E-4,0
ISS (ZARYA),1998-067A,2018-11-25T01:34:04.918944,15.54016069,.0005247,51.6425,297.0085,81.6654,38.3373,0,U,25544,999,14353,.41833E-4,.2278E-4,0
ISS (ZARYA),1998-067A,2018-11-25T07:10:10.966656,15.54015927,.0005293,51.6427,295.8442,82.4632,264.1685,0,U,25544,999,14356,.33234E-4,.1711E-4,0
ISS (ZARYA),1998-067A,2018-11-25T07:10:10.966656,15.54016438,.0005263,51.6428,295.8452,82.0901,264.5411,0,U,25544,999,14356,.37428E-4,.1988E-4,0
ISS (ZARYA),1998-067A,2018-11-25T09:24:04.736736,15.54016788,.0005317,51.6429,295.3807,82.5599,64.6105,0,U,25544,999,14358,.34092E-4,.1768E-4,0
ISS (ZARYA),1998-067A,2018-11-25T14:56:01.000320,15.54017665,.0005319,51.6430,294.2316,83.4791,274.1383,0,U,25544,999,14361,.33448E-4,.1725E-4,0
ISS (ZARYA),1998-067A,2018-11-25T19:55:23.255328,15.54018963,.0005312,51.6431,293.1954,84.0197,357.4398,0,U,25544,999,14365,.34392E-4,.1788E-4,0
ISS (ZARYA),1998-067A,2018-11-25T22:49:59.125728,15.54019718,.0005295,51.6429,292.5909,84.3027,315.9286,0,U,25544,999,14367,.34718E-4,.1809E-4,0
ISS (ZARYA),1998-067A,2018-11-26T02:10:32.705184,15.54019905,.000531,51.6428,291.8966,84.8414,15.0889,0,U,25544,999,14369,.33676E-4,.174E-4,0
ISS (ZARYA),1998-067A,2018-11-26T08:29:14.178048,15.54022761,.0005338,51.6430,290.5869,85.7956,46.3479,0,U,25544,999,14373,.4105E-4,.2227E-4,0
ISS (ZARYA),1998-067A,2018-11-26T10:04:54.741792,15.54022261,.0005335,51.6426,290.2547,86.0138,58.0823,0,U,25544,999,14374,.36768E-4,.1945E-4,0
ISS (ZARYA),1998-067A,2018-11-26T17:26:36.091968,15.54023865,.0005333,51.6426,288.7253,87.2294,333.9929,0,U,25544,999,14379,.37118E-4,.1968E-4,0
ISS (ZARYA),1998-067A,2018-11-26T22:01:17.944320,15.54024649,.000536,51.6428,287.7744,88.5013,320.6446,0,U,25544,999,14382,.36562E-4,.1931E-4,0
ISS (ZARYA),1998-067A,2018-11-27T01:18:43.416288,15.54025249,.0005327,51.6428,287.0907,88.3992,8.2617,0,U,25544,999,14384,.36451E-4,.1924E-4,0
ISS (ZARYA),1998-067A,2018-11-27T06:11:30.196896,15.54026429,.0005311,51.6428,286.0773,88.9986,65.8838,0,U,25544,999,14387,.37634E-4,.2002E-4,0
ISS (ZARYA),1998-067A,2018-11-27T09:14:01.657824,15.54026875,.0005311,51.6428,285.4453,89.4691,55.0017,0,U,25544,999,14389,.3698E-4,.1959E-4,0
ISS (ZARYA),1998-067A,2018-11-27T16:34:27.147936,15.54025527,.0005425,51.6428,283.9223,90.4291,326.2487,0,U,25544,999,14394,.24793E-4,.1154E-4,0
ISS (ZARYA),1998-067A,2018-11-27T22:49:48.545184,15.54028887,.0005297,51.6429,282.6207,91.7142,344.2245,0,U,25544,999,14398,.34677E-4,.1807E-4,0
ISS (ZARYA),1998-067A,2018-11-28T03:58:13.999584,15.54029188,.0005279,51.6429,281.5533,92.3261,102.6534,0,U,25544,999,14401,.3329E-4,.1716E-4,0
