1 25544U 98067A   18326.49769918  .00002201  00000-0  40680-4 0  9990
2 25544  51.6410 309.8041 0005312  73.4832  72.5213 15.54002573143136
1 25544U 98067A   18327.39995951  .00002576  00000-0  46347-4 0  9999
2 25544  51.6405 305.3059 0005308  76.4761  80.5126 15.54010020143272
1 25544U 98067A   18327.46173706  .00002559  00000-0  46094-4 0  9993
2 25544  51.6404 304.9979 0005302  76.3932  66.4347 15.54010296143284
1 25544U 98067A   18327.69164352  .00002484  00000-0  44960-4 0  9992
2 25544  51.6405 303.8520 0005300  77.0715 272.8054 15.54011319143319
1 25544U 98067A   18327.76881777  .00002477  00000-0  44843-4 0  9999
2 25544  51.6406 303.4674 0005305  77.2314 344.6784 15.54011739143334
1 25544U 98067A   18327.90420532  .00002467  00000-0  44693-4 0  9995
2 25544  51.6404 302.7924 0005340  77.9179  21.9126 15.54012523143356
1 25544U 98067A   18328.17810185  .00002085  00000-0  38904-4 0  9996
2 25544  51.6409 301.4268 0005361  78.9342 114.2027 15.54011910143393
1 25544U 98067A   18328.27860749  .00002124  00000-0  39504-4 0  9999
2 25544  51.6413 300.9279 0005265  79.2622 316.5199 15.54012641143414
1 25544U 98067A   18328.33391633  .00002114  00000-0  39350-4 0  9995
2 25544  51.6413 300.6521 0005264  79.4807 265.9286 15.54012871143416
1 25544U 98067A   18328.36578846  .00002114  00000-0  39350-4 0  9991
2 25544  51.6413 300.4932 0005263  79.5993  84.2352 15.54013037143428
1 25544U 98067A   18328.62139255  .00002015  00000-0  37850-4 0  9990
2 25544  51.6419 299.2200 0005234  79.7896  74.9554 15.54014027143463
1 25544U 98067A   18328.73282355  .00002005  00000-0  37698-4 0  9991
2 25544  51.6419 298.6646 0005239  80.2002 338.3533 15.54014531143487
1 25544U 98067A   18328.93211705  .00001968  00000-0  37126-4 0  9997
2 25544  51.6421 297.6711 0005248  81.0430  13.1881 15.54015422143514
1 25544U 98067A   18329.06533471  .00002278  00000-0  41833-4 0  9994
2 25544  51.6425 297.0085 0005247  81.6654  38.3373 15.54016069143534
1 25544U 98067A   18329.29873804  .00001711  00000-0  33234-4 0  9993
2 25544  51.6427 295.8442 0005293  82.4632 264.1685 15.54015927143565
1 25544U 98067A   18329.29873804  .00001988  00000-0  37428-4 0  9998
2 25544  51.6428 295.8452 0005263  82.0901 264.5411 15.54016438143568
1 25544U 98067A   18329.39172149  .00001768  00000-0  34092-4 0  9993
2 25544  51.6429 295.3807 0005317  82.5599  64.6105 15.54016788143585
1 25544U 98067A   18329.62223380  .00001725  00000-0  33448-4 0  9990
2 25544  51.6430 294.2316 0005319  83.4791 274.1383 15.54017665143611
1 25544U 98067A   18329.83013027  .00001788  00000-0  34392-4 0  9996
2 25544  51.6431 293.1954 0005312  84.0197 357.4398 15.54018963143655
1 25544U 98067A   18329.95137877  .00001809  00000-0  34718-4 0  9995
2 25544  51.6429 292.5909 0005295  84.3027 315.9286 15.54019718143676
1 25544U 98067A   18330.09065631  .00001740  00000-0  33676-4 0  9996
2 25544  51.6428 291.8966 0005310  84.8414  15.0889 15.54019905143690
1 25544U 98067A   18330.35363632  .00002227  00000-0  41050-4 0  9993
2 25544  51.6430 290.5869 0005338  85.7956  46.3479 15.54022761143733
1 25544U 98067A   18330.42007803  .00001945  00000-0  36768-4 0  9992
2 25544  51.6426 290.2547 0005335  86.0138  58.0823 15.54022261143740
1 25544U 98067A   18330.72680662  .00001968  00000-0  37118-4 0  9990
2 25544  51.6426 288.7253 0005333  87.2294 333.9929 15.54023865143798
1 25544U 98067A   18330.91756880  .00001931  00000-0  36562-4 0  9999
2 25544  51.6428 287.7744 0005360  88.5013 320.6446 15.54024649143829
1 25544U 98067A   18331.05466917  .00001924  00000-0  36451-4 0  9993
2 25544  51.6428 287.0907 0005327  88.3992   8.2617 15.54025249143848
1 25544U 98067A   18331.25798839  .00002002  00000-0  37634-4 0  9998
2 25544  51.6428 286.0773 0005311  88.9986  65.8838 15.54026429143878
1 25544U 98067A   18331.38474141  .00001959  00000-0  36980-4 0  9992
2 25544  51.6428 285.4453 0005311  89.4691  55.0017 15.54026875143892
1 25544U 98067A   18331.69059199  .00001154  00000-0  24793-4 0  9994
2 25544  51.6428 283.9223 0005425  90.4291 326.2487 15.54025527143947
1 25544U 98067A   18331.95125631  .00001807  00000-0  34677-4 0  9995
2 25544  51.6429 282.6207 0005297  91.7142 344.2245 15.54028887143980
1 25544U 98067A   18332.16543981  .00001716  00000-0  33290-4 0  9990
2 25544  51.6429 281.5533 0005279  92.3261 102.6534 15.54029188144016
